<?xml version="1.0" encoding="UTF-8"?>
<ndm xmlns:xsi="http://www.w3.org/2001/XMLSchema-instance" xsi:noNamespaceSchemaLocation="https://sanaregistry.org/r/ndmxml_unqualified/ndmxml-2.0.0-master-2.0.xsd">
<omm id="CCSDS_OMM_VERS" version="2.0">
<header><CREATION_DATE/><ORIGINATOR/></header><body><segment><metadata><OBJECT_NAME>EUTELSAT QUANTUM</OBJECT_NAME><OBJECT_ID>2021-069B</OBJECT_ID><CENTER_NAME>EARTH</CENTER_NAME><REF_FRAME>TEME</REF_FRAME><TIME_SYSTEM>UTC</TIME_SYSTEM><MEAN_ELEMENT_THEORY>SGP4</MEAN_ELEMENT_THEORY></metadata><data><meanElements><EPOCH>2026-01-23T14:01:47.180640</EPOCH><MEAN_MOTION>1.00270634</MEAN_MOTION><ECCENTRICITY>.00032827</ECCENTRICITY><INCLINATION>0.0090</INCLINATION><RA_OF_ASC_NODE>33.1968</RA_OF_ASC_NODE><ARG_OF_PERICENTER>269.9627</ARG_OF_PERICENTER><MEAN_ANOMALY>77.8881</MEAN_ANOMALY></meanElements><tleParameters><EPHEMERIS_TYPE>0</EPHEMERIS_TYPE><CLASSIFICATION_TYPE>U</CLASSIFICATION_TYPE><NORAD_CAT_ID>49056</NORAD_CAT_ID><ELEMENT_SET_NO>999</ELEMENT_SET_NO><REV_AT_EPOCH>1647</REV_AT_EPOCH><BSTAR>0</BSTAR><MEAN_MOTION_DOT>.141E-5</MEAN_MOTION_DOT><MEAN_MOTION_DDOT>0</MEAN_MOTION_DDOT></tleParameters></data></segment></body></omm>
<omm id="CCSDS_OMM_VERS" version="2.0">
<header><CREATION_DATE/><ORIGINATOR/></header><body><segment><metadata><OBJECT_NAME>EUTELSAT KONNECT VHTS</OBJECT_NAME><OBJECT_ID>2022-110A</OBJECT_ID><CENTER_NAME>EARTH</CENTER_NAME><REF_FRAME>TEME</REF_FRAME><TIME_SYSTEM>UTC</TIME_SYSTEM><MEAN_ELEMENT_THEORY>SGP4</MEAN_ELEMENT_THEORY></metadata><data><meanElements><EPOCH>2026-01-23T00:07:19.475328</EPOCH><MEAN_MOTION>1.00275065</MEAN_MOTION><ECCENTRICITY>.00033255</ECCENTRICITY><INCLINATION>0.0559</INCLINATION><RA_OF_ASC_NODE>99.7651</RA_OF_ASC_NODE><ARG_OF_PERICENTER>178.8927</ARG_OF_PERICENTER><MEAN_ANOMALY>208.2208</MEAN_ANOMALY></meanElements><tleParameters><EPHEMERIS_TYPE>0</EPHEMERIS_TYPE><CLASSIFICATION_TYPE>U</CLASSIFICATION_TYPE><NORAD_CAT_ID>53765</NORAD_CAT_ID><ELEMENT_SET_NO>999</ELEMENT_SET_NO><REV_AT_EPOCH>538</REV_AT_EPOCH><BSTAR>0</BSTAR><MEAN_MOTION_DOT>.32E-6</MEAN_MOTION_DOT><MEAN_MOTION_DDOT>0</MEAN_MOTION_DDOT></tleParameters></data></segment></body></omm>
<omm id="CCSDS_OMM_VERS" version="2.0">
<header><CREATION_DATE/><ORIGINATOR/></header><body><segment><metadata><OBJECT_NAME>EUTELSAT HOTBIRD 13F</OBJECT_NAME><OBJECT_ID>2022-134A</OBJECT_ID><CENTER_NAME>EARTH</CENTER_NAME><REF_FRAME>TEME</REF_FRAME><TIME_SYSTEM>UTC</TIME_SYSTEM><MEAN_ELEMENT_THEORY>SGP4</MEAN_ELEMENT_THEORY></metadata><data><meanElements><EPOCH>2026-01-23T13:51:55.625760</EPOCH><MEAN_MOTION>1.00270463</MEAN_MOTION><ECCENTRICITY>.00021416</ECCENTRICITY><INCLINATION>0.0565</INCLINATION><RA_OF_ASC_NODE>279.4409</RA_OF_ASC_NODE><ARG_OF_PERICENTER>83.0135</ARG_OF_PERICENTER><MEAN_ANOMALY>341.4129</MEAN_ANOMALY></meanElements><tleParameters><EPHEMERIS_TYPE>0</EPHEMERIS_TYPE><CLASSIFICATION_TYPE>U</CLASSIFICATION_TYPE><NORAD_CAT_ID>54048</NORAD_CAT_ID><ELEMENT_SET_NO>999</ELEMENT_SET_NO><REV_AT_EPOCH>1192</REV_AT_EPOCH><BSTAR>0</BSTAR><MEAN_MOTION_DOT>.102E-5</MEAN_MOTION_DOT><MEAN_MOTION_DDOT>0</MEAN_MOTION_DDOT></tleParameters></data></segment></body></omm>
<omm id="CCSDS_OMM_VERS" version="2.0">
<header><CREATION_DATE/><ORIGINATOR/></header><body><segment><metadata><OBJECT_NAME>EUTELSAT HOTBIRD 13G</OBJECT_NAME><OBJECT_ID>2022-146A</OBJECT_ID><CENTER_NAME>EARTH</CENTER_NAME><REF_FRAME>TEME</REF_FRAME><TIME_SYSTEM>UTC</TIME_SYSTEM><MEAN_ELEMENT_THEORY>SGP4</MEAN_ELEMENT_THEORY></metadata><data><meanElements><EPOCH>2026-01-23T09:09:38.879136</EPOCH><MEAN_MOTION>1.00269833</MEAN_MOTION><ECCENTRICITY>.00019914</ECCENTRICITY><INCLINATION>0.0546</INCLINATION><RA_OF_ASC_NODE>246.4830</RA_OF_ASC_NODE><ARG_OF_PERICENTER>295.9821</ARG_OF_PERICENTER><MEAN_ANOMALY>90.6438</MEAN_ANOMALY></meanElements><tleParameters><EPHEMERIS_TYPE>0</EPHEMERIS_TYPE><CLASSIFICATION_TYPE>U</CLASSIFICATION_TYPE><NORAD_CAT_ID>54225</NORAD_CAT_ID><ELEMENT_SET_NO>999</ELEMENT_SET_NO><REV_AT_EPOCH>601</REV_AT_EPOCH><BSTAR>0</BSTAR><MEAN_MOTION_DOT>.102E-5</MEAN_MOTION_DOT><MEAN_MOTION_DDOT>0</MEAN_MOTION_DDOT></tleParameters></data></segment></body></omm>
<omm id="CCSDS_OMM_VERS" version="2.0">
<header><CREATION_DATE/><ORIGINATOR/></header><body><segment><metadata><OBJECT_NAME>EUTELSAT 10B</OBJECT_NAME><OBJECT_ID>2022-157A</OBJECT_ID><CENTER_NAME>EARTH</CENTER_NAME><REF_FRAME>TEME</REF_FRAME><TIME_SYSTEM>UTC</TIME_SYSTEM><MEAN_ELEMENT_THEORY>SGP4</MEAN_ELEMENT_THEORY></metadata><data><meanElements><EPOCH>2026-01-23T13:51:03.209472</EPOCH><MEAN_MOTION>1.00268394</MEAN_MOTION><ECCENTRICITY>.0000877</ECCENTRICITY><INCLINATION>0.0558</INCLINATION><RA_OF_ASC_NODE>96.8203</RA_OF_ASC_NODE><ARG_OF_PERICENTER>44.5399</ARG_OF_PERICENTER><MEAN_ANOMALY>199.3219</MEAN_ANOMALY></meanElements><tleParameters><EPHEMERIS_TYPE>0</EPHEMERIS_TYPE><CLASSIFICATION_TYPE>U</CLASSIFICATION_TYPE><NORAD_CAT_ID>54259</NORAD_CAT_ID><ELEMENT_SET_NO>999</ELEMENT_SET_NO><REV_AT_EPOCH>1157</REV_AT_EPOCH><BSTAR>0</BSTAR><MEAN_MOTION_DOT>.83E-6</MEAN_MOTION_DOT><MEAN_MOTION_DDOT>0</MEAN_MOTION_DDOT></tleParameters></data></segment></body></omm>
<omm id="CCSDS_OMM_VERS" version="2.0">
<header><CREATION_DATE/><ORIGINATOR/></header><body><segment><metadata><OBJECT_NAME>EUTELSAT 36D</OBJECT_NAME><OBJECT_ID>2024-059A</OBJECT_ID><CENTER_NAME>EARTH</CENTER_NAME><REF_FRAME>TEME</REF_FRAME><TIME_SYSTEM>UTC</TIME_SYSTEM><MEAN_ELEMENT_THEORY>SGP4</MEAN_ELEMENT_THEORY></metadata><data><meanElements><EPOCH>2026-01-23T13:58:25.003776</EPOCH><MEAN_MOTION>1.00272083</MEAN_MOTION><ECCENTRICITY>.0000216</ECCENTRICITY><INCLINATION>0.0189</INCLINATION><RA_OF_ASC_NODE>73.9301</RA_OF_ASC_NODE><ARG_OF_PERICENTER>237.4252</ARG_OF_PERICENTER><MEAN_ANOMALY>57.0089</MEAN_ANOMALY></meanElements><tleParameters><EPHEMERIS_TYPE>0</EPHEMERIS_TYPE><CLASSIFICATION_TYPE>U</CLASSIFICATION_TYPE><NORAD_CAT_ID>59346</NORAD_CAT_ID><ELEMENT_SET_NO>999</ELEMENT_SET_NO><REV_AT_EPOCH>669</REV_AT_EPOCH><BSTAR>0</BSTAR><MEAN_MOTION_DOT>.171E-5</MEAN_MOTION_DOT><MEAN_MOTION_DDOT>0</MEAN_MOTION_DDOT></tleParameters></data></segment></body></omm>
</ndm>
