EUTELSAT QUANTUM        
1 49056U 21069B   26023.58457385  .00000141  00000+0  00000+0 0  9994
2 49056   0.0090  33.1968 0003282 269.9627  77.8881  1.00270634 16471
EUTELSAT KONNECT VHTS   
1 53765U 22110A   26023.00508652  .00000032  00000+0  00000+0 0  9994
2 53765   0.0559  99.7651 0003325 178.8927 208.2208  1.00275065  5383
EUTELSAT HOTBIRD 13F    
1 54048U 22134A   26023.57772715  .00000102  00000+0  00000+0 0  9998
2 54048   0.0565 279.4409 0002141  83.0135 341.4129  1.00270463 11922
EUTELSAT HOTBIRD 13G    
1 54225U 22146A   26023.38169999  .00000102  00000+0  00000+0 0  9991
2 54225   0.0546 246.4830 0001991 295.9821  90.6438  1.00269833  6017
EUTELSAT 10B            
1 54259U 22157A   26023.57712048  .00000083  00000+0  00000+0 0  9998
2 54259   0.0558  96.8203 0000877  44.5399 199.3219  1.00268394 11570
EUTELSAT 36D            
1 59346U 24059A   26023.58223384  .00000171  00000+0  00000+0 0  9992
2 59346   0.0189  73.9301 0000216 237.4252  57.0089  1.00272083  6697
